NORAD_CAT_ID,OBJECT_NAME,OBJECT_TYPE,EPOCH,MEAN_MOTION,ECCENTRICITY,INCLINATION,RA_OF_ASC_NODE,ARG_OF_PERICENTER,MEAN_ANOMALY,BSTAR,MEAN_MOTION_DOT,MEAN_MOTION_DDOT,TLE_LINE0,TLE_LINE1,TLE_LINE2,SEMIMAJOR_AXIS,PERIOD,APOGEE,PERIGEE,DECAYED
53135.0,STARLINK-4023,PAYLOAD,2024-02-25 20:46:50,15.08849355,0.0001499,53.2155,268.7841,89.7047,270.4117,0.00020943,3.048e-05,0.0,0 STARLINK-4023,1 53135U 22083D   24056.86585921  .00003048  00000-0  20943-3 0  9999,2 53135  53.2155 268.7841 0001499  89.7047 270.4117 15.08849355 90069,6917.852,95.437,540.754,538.68,0.0
53135.0,STARLINK-4023,PAYLOAD,2024-02-26 19:02:14,15.0883602,0.0001422,53.2154,264.6221,94.8245,265.291,6.3563e-06,-1.87e-06,0.0,0 STARLINK-4023,1 53135U 22083D   24057.79322756 -.00000187  00000-0  63563-5 0  9996,2 53135  53.2154 264.6221 0001422  94.8245 265.2910 15.08836020 89840,6917.893,95.438,540.741,538.774,0.0
53135.0,STARLINK-4023,PAYLOAD,2024-02-26 20:37:38,15.08833062,0.0001473,53.2153,264.3242,86.1254,273.9906,-1.074e-05,-4.59e-06,0.0,0 STARLINK-4023,1 53135U 22083D   24057.85946952 -.00000459  00000-0 -10740-4 0  9994,2 53135  53.2153 264.3242 0001473  86.1254 273.9906 15.08833062 90216,6917.902,95.438,540.786,538.748,0.0
53135.0,STARLINK-4023,PAYLOAD,2024-02-27 06:09:57,15.08835077,0.0001459,53.2153,262.5411,83.1917,276.9241,1.7815e-05,-4e-08,0.0,0 STARLINK-4023,1 53135U 22083D   24058.25691006 -.00000004  00000-0  17815-4 0  9991,2 53135  53.2153 262.5411 0001459  83.1917 276.9241 15.08835077 90270,6917.895,95.438,540.77,538.751,0.0
53135.0,STARLINK-4023,PAYLOAD,2024-02-27 20:28:25,15.08843076,0.0001337,53.2167,259.8644,83.6147,276.4997,5.0034e-05,5.09e-06,0.0,0 STARLINK-4023,1 53135U 22083D   24058.85306784  .00000509  00000-0  50034-4 0  9992,2 53135  53.2167 259.8644 0001337  83.6147 276.4997 15.08843076 90009,6917.871,95.437,540.661,538.811,0.0
53135.0,STARLINK-4023,PAYLOAD,2024-02-28 06:00:43,15.08843719,0.0001276,53.2163,258.0806,89.3429,270.7709,5.1596e-05,5.33e-06,0.0,0 STARLINK-4023,1 53135U 22083D   24059.25050684  .00000533  00000-0  51596-4 0  9993,2 53135  53.2163 258.0806 0001276  89.3429 270.7709 15.08843719 90422,6917.869,95.437,540.617,538.851,0.0
53135.0,STARLINK-4023,PAYLOAD,2024-02-28 20:19:12,15.08836787,0.000133,53.2164,255.405,96.6557,263.4587,0.00015479,2.176e-05,0.0,0 STARLINK-4023,1 53135U 22083D   24059.84667248  .00002176  00000-0  15479-3 0  9992,2 53135  53.2164 255.4050 0001330  96.6557 263.4587 15.08836787 90159,6917.89,95.438,540.675,538.835,0.0
53135.0,STARLINK-4023,PAYLOAD,2024-02-28 21:54:35,15.08837882,0.0001347,53.2165,255.1077,96.7829,263.3316,0.00016627,2.359e-05,0.0,0 STARLINK-4023,1 53135U 22083D   24059.91291208  .00002359  00000-0  16627-3 0  9998,2 53135  53.2165 255.1077 0001347  96.7829 263.3316 15.08837882 90524,6917.887,95.438,540.684,538.82,0.0
53135.0,STARLINK-4023,PAYLOAD,2024-02-29 05:51:31,15.08837462,0.0001319,53.215,253.6199,88.5279,271.5864,8.5606e-05,1.075e-05,0.0,0 STARLINK-4023,1 53135U 22083D   24060.24411223  .00001075  00000-0  85606-4 0  9995,2 53135  53.2150 253.6199 0001319  88.5279 271.5864 15.08837462 90571,6917.888,95.438,540.666,538.841,0.0
53135.0,STARLINK-4023,PAYLOAD,2024-02-29 21:45:22,15.08839699,0.0001312,53.2163,250.6466,89.1339,270.9803,6.6656e-05,7.73e-06,0.0,0 STARLINK-4023,1 53135U 22083D   24060.90651609  .00000773  00000-0  66656-4 0  9990,2 53135  53.2163 250.6466 0001312  89.1339 270.9803 15.08839699 90677,6917.881,95.438,540.654,538.839,0.0
53135.0,STARLINK-4023,PAYLOAD,2024-03-01 05:42:18,15.08844262,0.0001313,53.2163,249.1597,88.7224,271.3919,9.0104e-05,1.147e-05,0.0,0 STARLINK-4023,1 53135U 22083D   24061.23771319  .00001147  00000-0  90104-4 0  9999,2 53135  53.2163 249.1597 0001313  88.7224 271.3919 15.08844262 90725,6917.867,95.437,540.641,538.824,0.0
53135.0,STARLINK-4023,PAYLOAD,2024-03-01 18:25:23,15.08848164,0.0001336,53.2152,246.7798,87.393,272.7215,0.00022933,3.365e-05,0.0,0 STARLINK-4023,1 53135U 22083D   24061.76762898  .00003365  00000-0  22933-3 0  9997,2 53135  53.2152 246.7798 0001336  87.3930 272.7215 15.08848164 90441,6917.855,95.437,540.645,538.796,0.0
53135.0,STARLINK-4023,PAYLOAD,2024-03-02 18:16:10,15.0884614,0.0001191,53.2148,242.3203,84.4806,275.6322,0.00020049,2.905e-05,0.0,0 STARLINK-4023,1 53135U 22083D   24062.76122912  .00002905  00000-0  20049-3 0  9990,2 53135  53.2148 242.3203 0001191  84.4806 275.6322 15.08846140 90597,6917.862,95.437,540.551,538.903,0.0
53135.0,STARLINK-4023,PAYLOAD,2024-03-03 14:56:11,15.088268,0.0001102,53.2151,238.4529,97.6349,262.4768,0.00045195,6.91e-05,0.0,0 STARLINK-4023,1 53135U 22083D   24063.62235856  .00006910  00000-0  45195-3 0  9997,2 53135  53.2151 238.4529 0001102  97.6349 262.4768 15.08826800 91082,6917.921,95.438,540.548,539.023,0.0
53135.0,STARLINK-4023,PAYLOAD,2024-03-03 18:06:58,15.08787552,0.0001463,53.2168,237.8574,114.7295,245.3849,0.00091577,0.00014296,0.0,0 STARLINK-4023,1 53135U 22083D   24063.75484158  .00014296  00000-0  91577-3 0  9993,2 53135  53.2168 237.8574 0001463 114.7295 245.3849 15.08787552 90746,6918.041,95.441,540.918,538.894,0.0
53135.0,STARLINK-4023,PAYLOAD,2024-03-04 11:36:11,15.0884207,0.0001414,53.2172,234.5859,100.42,259.6952,0.00018817,2.708e-05,0.0,0 STARLINK-4023,1 53135U 22083D   24064.48346246  .00002708  00000-0  18817-3 0  9990,2 53135  53.2172 234.5859 0001414 100.4200 259.6952 15.08842070 90857,6917.874,95.437,540.717,538.761,0.0
53135.0,STARLINK-4023,PAYLOAD,2024-03-04 14:46:57,15.08827408,0.0001416,53.2162,233.9917,101.0168,259.0984,0.00045362,6.936e-05,0.0,0 STARLINK-4023,1 53135U 22083D   24064.61594319  .00006936  00000-0  45362-3 0  9993,2 53135  53.2162 233.9917 0001416 101.0168 259.0984 15.08827408 91236,6917.919,95.438,540.763,538.804,0.0
53135.0,STARLINK-4023,PAYLOAD,2024-03-04 17:57:43,15.08851829,0.0001297,53.2152,233.3975,87.728,272.3861,0.00023971,3.53e-05,0.0,0 STARLINK-4023,1 53135U 22083D   24064.74842128  .00003530  00000-0  23971-3 0  9990,2 53135  53.2152 233.3975 0001297  87.7280 272.3861 15.08851829 91253,6917.844,95.437,540.606,538.812,0.0
53135.0,STARLINK-4023,PAYLOAD,2024-03-05 14:37:45,15.08835563,0.0001498,53.2161,229.5309,106.3563,253.7594,-1.403e-05,-5.11e-06,0.0,0 STARLINK-4023,1 53135U 22083D   24065.60954961 -.00000511  00000-0 -14030-4 0  9990,2 53135  53.2161 229.5309 0001498 106.3563 253.7594 15.08835563 91383,6917.894,95.438,540.795,538.723,0.0
53135.0,STARLINK-4023,PAYLOAD,2024-03-05 17:48:31,15.08836737,0.000124,53.2155,228.9371,95.706,264.4073,-1.1454e-05,-4.7e-06,0.0,0 STARLINK-4023,1 53135U 22083D   24065.74202989 -.00000470  00000-0 -11454-4 0  9992,2 53135  53.2155 228.9371 0001240  95.7060 264.4073 15.08836737 91044,6917.89,95.438,540.613,538.898,0.0
53135.0,STARLINK-4023,PAYLOAD,2024-03-06 14:28:32,15.08831687,0.0001299,53.2168,225.074,93.5256,266.5884,-8.8935e-05,-1.703e-05,0.0,0 STARLINK-4023,1 53135U 22083D   24066.60315696 -.00001703  00000-0 -88935-4 0  9996,2 53135  53.2168 225.0740 0001299  93.5256 266.5884 15.08831687 91539,6917.906,95.438,540.669,538.872,0.0
53135.0,STARLINK-4023,PAYLOAD,2024-03-06 17:39:19,15.08829931,0.0001286,53.2175,224.4794,79.7645,280.3492,-0.00011017,-2.04e-05,0.0,0 STARLINK-4023,1 53135U 22083D   24066.73563780 -.00002040  00000-0 -11017-3 0  9990,2 53135  53.2175 224.4794 0001286  79.7645 280.3492 15.08829931 91193,6917.911,95.438,540.666,538.887,0.0
53135.0,STARLINK-4023,PAYLOAD,2024-03-07 03:11:39,15.08813515,0.0001155,53.2154,222.6957,88.4662,271.6462,-0.00013138,-2.377e-05,0.0,0 STARLINK-4023,1 53135U 22083D   24067.13309292 -.00002377  00000-0 -13138-3 0  9990,2 53135  53.2154 222.6957 0001155  88.4662 271.6462 15.08813515 91250,6917.961,95.439,540.625,539.027,0.0
53135.0,STARLINK-4023,PAYLOAD,2024-03-07 14:19:20,15.08837788,0.0001514,53.2173,220.6141,89.5212,270.5954,0.00026171,3.879e-05,0.0,0 STARLINK-4023,1 53135U 22083D   24067.59676552  .00003879  00000-0  26171-3 0  9993,2 53135  53.2173 220.6141 0001514  89.5212 270.5954 15.08837788 91685,6917.887,95.438,540.8,538.705,0.0
53135.0,STARLINK-4023,PAYLOAD,2024-03-08 18:56:16,15.08845904,0.000162,53.217,215.2611,78.2772,281.8402,0.00026208,3.886e-05,0.0,0 STARLINK-4023,1 53135U 22083D   24068.78908334  .00003886  00000-0  26208-3 0  9990,2 53135  53.2170 215.2611 0001620  78.2772 281.8402 15.08845904 91501,6917.862,95.437,540.848,538.607,0.0
53135.0,STARLINK-4023,PAYLOAD,2024-03-09 02:53:12,15.08839386,0.00016,53.2176,213.7736,79.5591,280.5582,0.00023259,3.416e-05,0.0,0 STARLINK-4023,1 53135U 22083D   24069.12028589  .00003416  00000-0  23259-3 0  9996,2 53135  53.2176 213.7736 0001600  79.5591 280.5582 15.08839386 91556,6917.882,95.438,540.854,538.64,0.0
53135.0,STARLINK-4023,PAYLOAD,2024-03-10 09:05:32,15.08841144,0.0001685,53.2181,208.1246,78.0986,282.0195,6.4946e-05,7.46e-06,0.0,0 STARLINK-4023,1 53135U 22083D   24070.37884345  .00000746  00000-0  64946-4 0  9997,2 53135  53.2181 208.1246 0001685  78.0986 282.0195 15.08841144 91744,6917.877,95.437,540.908,538.576,0.0
53135.0,STARLINK-4023,PAYLOAD,2024-03-10 15:27:04,15.08844517,0.0002162,53.2139,206.932,90.7833,269.3407,0.00011168,1.49e-05,0.0,0 STARLINK-4023,1 53135U 22083D   24070.64379911  .00001490  00000-0  11168-3 0  9999,2 53135  53.2139 206.9320 0002162  90.7833 269.3407 15.08844517 92145,6917.867,95.437,541.227,538.236,0.0
53135.0,STARLINK-4023,PAYLOAD,2024-03-11 12:07:05,15.08840992,0.000176,53.2156,203.0679,95.1074,265.0119,5.3924e-05,5.7e-06,0.0,0 STARLINK-4023,1 53135U 22083D   24071.50492178  .00000570  00000-0  53924-4 0  9991,2 53135  53.2156 203.0679 0001760  95.1074 265.0119 15.08840992 91918,6917.877,95.437,540.96,538.525,0.0
53135.0,STARLINK-4023,PAYLOAD,2024-03-11 15:17:51,15.08840767,0.0001475,53.2166,202.4732,91.3431,268.773,4.9565e-05,5.01e-06,0.0,0 STARLINK-4023,1 53135U 22083D   24071.63740119  .00000501  00000-0  49565-4 0  9996,2 53135  53.2166 202.4732 0001475  91.3431 268.7730 15.08840767 92291,6917.878,95.438,540.763,538.723,0.0
